[{"OBJECT_NAME":"STARLINK-5960","OBJECT_ID":"2023-083AW","EPOCH":"2026-03-09T22:00:01.999584","MEAN_MOTION":15.06681708,"ECCENTRICITY":0.00012025,"INCLINATION":43.0005,"RA_OF_ASC_NODE":67.3488,"ARG_OF_PERICENTER":306.9912,"MEAN_ANOMALY":164.9708,"EPHEMERIS_TYPE":0,"CLASSIFICATION_TYPE":"U","NORAD_CAT_ID":56920,"ELEMENT_SET_NO":999,"REV_AT_EPOCH":577,"BSTAR":0.0042766737,"MEAN_MOTION_DOT":0.00064947,"MEAN_MOTION_DDOT":0},{"OBJECT_NAME":"CZ-6A DEB","OBJECT_ID":"2024-140ZQ","EPOCH":"2026-03-09T07:41:20.503680","MEAN_MOTION":14.88666488,"ECCENTRICITY":0.01239144,"INCLINATION":88.9332,"RA_OF_ASC_NODE":275.1602,"ARG_OF_PERICENTER":122.3295,"MEAN_ANOMALY":239.0003,"EPHEMERIS_TYPE":0,"CLASSIFICATION_TYPE":"U","NORAD_CAT_ID":61458,"ELEMENT_SET_NO":999,"REV_AT_EPOCH":8241,"BSTAR":0.001542641,"MEAN_MOTION_DOT":0.00016654,"MEAN_MOTION_DDOT":0}]
